0 THOR ABLESTAR DEB
1 05876U 61015KF  13280.45164508 -.00000107  00000-0 -12824-3 0   379
2 05876 065.6732 229.6541 0730437 188.7351 269.0878 12.46905051586959
0 THOR ABLESTAR DEB
1 05876U 61015KF  13282.45737425 -.00000092  00000-0 -87093-4 0   380
2 05876 065.6733 225.6426 0730290 187.9835 272.5271 12.46905214587209
0 THOR ABLESTAR DEB
1 05876U 61015KF  13285.34276747 -.00000055  00000-0  82519-5 0   394
2 05876 065.6735 219.8717 0730066 186.9007 264.6610 12.46905094587564
0 THOR ABLESTAR DEB
1 05876U 61015KF  13288.07175253  .00000059  00000-0  30599-3 0   401
2 05876 065.6736 214.4141 0729867 185.8765 274.7005 12.46904622587907
0 THOR ABLESTAR DEB
1 05876U 61015KF  13290.07794855  .00000086  00000-0  37711-3 0   413
2 05876 065.6735 210.4019 0729743 185.1230 280.2389 12.46904825588159
0 THOR ABLESTAR DEB
1 05876U 61015KF  13292.17388412  .00000119  00000-0  46452-3 0   424
2 05876 065.6732 206.2103 0729592 184.3364 328.6066 12.46905312588414
0 THOR ABLESTAR DEB
1 05876U 61015KF  13294.18174594  .00000071  00000-0  33921-3 0   436
2 05876 065.6731 202.1949 0729463 183.5865 341.6220 12.46906069588664
